STARLINK-5812           
1 55774U 23028AK  23099.26151805 -.00002376  00000+0 -18010-4 0  9997
2 55774  69.9987  52.5650 0003107 264.4585  95.6256 15.69908974  6407
STARLINK-5809           
1 55775U 23028AL  23099.26131522 -.00003095  00000+0 -24006-4 0  9993
2 55775  69.9997  52.5647 0003225 261.4280  98.6550 15.69900991  6406
STARLINK-5810           
1 55776U 23028AM  23099.26066053  .00000383  00000+0  49515-5 0  9998
2 55776  69.9994  52.5618 0002930 270.7585  89.3275 15.69927605  6407
STARLINK-5814           
1 55777U 23028AN  23099.26107974  .00006990  00000+0  59813-4 0  9998
2 55777  70.0019  52.5641 0002835 255.9462 104.1419 15.69939806  6400
STARLINK-5816           
1 55778U 23028AP  23099.32465890  .00007865  00000+0  66996-4 0  9992
2 55778  69.9985  52.3816 0003549 257.4983 102.5816 15.69968775  6411
STARLINK-5817           
1 55779U 23028AQ  23099.29721614  .00000773  00000+0  81938-5 0  9993
2 55779  70.0026  52.2791 0003970 265.7379  94.3363 15.69929308  6415
STARLINK-5819           
1 55780U 23028AR  23099.26085955 -.00006066  00000+0 -48748-4 0  9997
2 55780  70.0008  52.5611 0003299 264.3026  95.7794 15.69908197  6404
STARLINK-5820           
1 55781U 23028AS  23099.26075835 -.00007873  00000+0 -63817-4 0  9995
2 55781  70.0010  52.5621 0003169 264.8288  95.2546 15.69905670  6403
STARLINK-5826           
1 55782U 23028AT  23099.26056900 -.00006517  00000+0 -52535-4 0  9997
2 55782  70.0005  52.5606 0003668 268.1149  91.9626 15.69892223  6409
STARLINK-5825           
1 55783U 23028AU  23099.26043925  .00000363  00000+0  47859-5 0  9996
2 55783  69.9979  52.5603 0003423 260.8604  99.2204 15.69934233  6409
STARLINK-5797           
1 55784U 23028AV  23099.26002091  .00000887  00000+0  91461-5 0  9995
2 55784  70.0001  52.5584 0003708 267.0611  93.0161 15.69927593  6405
STARLINK-5818           
1 55785U 23028AW  23099.26033960  .00004123  00000+0  36039-4 0  9991
2 55785  70.0015  52.5609 0003444 270.7912  89.2889 15.69926023  6402
STARLINK-5823           
1 55786U 23028AX  23099.32363324  .00002158  00000+0  19707-4 0  9998
2 55786  70.0013  52.3782 0003246 262.8168  97.2659 15.69929737  6416
STARLINK-5811           
1 55787U 23028AY  23099.26022880  .00001595  00000+0  15029-4 0  9998
2 55787  70.0009  52.5599 0003641 267.0988  92.9791 15.69931136  6400
STARLINK-5804           
1 55788U 23028AZ  23099.26012596  .00000712  00000+0  76886-5 0  9991
2 55788  70.0004  52.5575 0003634 267.4819  92.5960 15.69928491  6403
STARLINK-5815           
1 55789U 23028BA  23099.32331272 -.00002377  00000+0 -17995-4 0  9990
2 55789  69.9991  52.3772 0003340 266.8697  93.2117 15.69938798  6418
STARLINK-5813           
1 55790U 23028BB  23099.25970821  .00000098  00000+0  25863-5 0  9993
2 55790  69.9985  52.5588 0003781 267.6315  92.4448 15.69924682  6409
STARLINK-5807           
1 55791U 23028BC  23099.25980986 -.00000387  00000+0 -14508-5 0  9994
2 55791  69.9983  52.5577 0003375 267.3946  92.6863 15.69928087  6408
ONEWEB-0530             
1 55796U 23029A   23099.70625313 -.00000533  00000+0 -56153-4 0  9994
2 55796  86.5128 185.6629 0012866 110.6343 249.6266 14.91598937  5312
ONEWEB-0534             
1 55797U 23029B   23099.30490979  .00004870  00000+0  48261-3 0  9995
2 55797  86.5079 185.8230 0011967 111.2695 248.9812 14.91558979  4552
ONEWEB-0556             
1 55798U 23029C   23099.30208080  .00005165  00000+0  51021-3 0  9992
2 55798  86.5120 185.8365 0012319 109.6179 250.6380 14.91699056  4551
ONEWEB-0562             
1 55799U 23029D   23099.30703763  .00005251  00000+0  52201-3 0  9998
2 55799  86.5086 185.8256 0011442 112.8709 247.3728 14.91454417  4552
ONEWEB-0563             
1 55800U 23029E   23099.30530194  .00005302  00000+0  52594-3 0  9999
2 55800  86.5131 185.8433 0011659 112.1860 248.0606 14.91538420  4554
ONEWEB-0564             
1 55801U 23029F   23099.30263453  .00005128  00000+0  50694-3 0  9996
2 55801  86.5090 185.8245 0012250 110.0756 250.1791 14.91668691  4552
ONEWEB-0638             
1 55802U 23029G   23099.29036812  .00004811  00000+0  46788-3 0  9999
2 55802  86.5115 185.8292 0014721 111.5728 248.7070 14.92275946  4554
ONEWEB-0639             
1 55803U 23029H   23099.91667824 -.00731360  00000+0 -11782+0 0  9992
2 55803  86.6300 185.7874 0011407 114.8600 125.0926 14.74391167  5316
ONEWEB-0640             
1 55804U 23029J   23099.28381455  .00004676  00000+0  45087-3 0  9996
2 55804  86.5101 185.8197 0015437 117.0805 243.2000 14.92598854  4556
ONEWEB-0641             
1 55805U 23029K   23099.58334491 -.00612014  00000+0 -98563-1 0  9996
2 55805  86.6438 185.9330 0013490 109.4177 194.9711 14.73920814  1300
ONEWEB-0642             
1 55806U 23029L   23099.91667824 -.00769772  00000+0 -12215+0 0  9995
2 55806  86.6283 185.7872 0011464 110.5974 172.4185 14.75184923  5311
ONEWEB-0643             
1 55807U 23029M   23099.29137024  .00004859  00000+0  47315-3 0  9990
2 55807  86.5099 185.8204 0014929 111.8437 248.4380 14.92225600  4556
ONEWEB-0644             
1 55808U 23029N   23099.58334491 -.00613643  00000+0 -98717-1 0  9999
2 55808  86.6417 185.9551 0011430 113.9001 128.5821 14.73998213  1306
ONEWEB-0645             
1 55809U 23029P   23099.58334491 -.00697920  00000+0 -10973+0 0  9996
2 55809  86.6269 185.9129 0013646 109.2269 254.4446 14.75278309  5268
ONEWEB-0646             
1 55810U 23029Q   23100.08334491 -.00667801  00000+0 -10651+0 0  9994
2 55810  86.6292 185.7243 0011256 108.3623 317.0722 14.74577786  5331
ONEWEB-0648             
1 55811U 23029R   23099.28940040  .00004757  00000+0  46198-3 0  9999
2 55811  86.5106 185.8230 0015142 111.6266 248.6576 14.92325031  4553
ONEWEB-0649             
1 55812U 23029S   23099.58334491 -.00644687  00000+0 -10318+0 0  9995
2 55812  86.6341 185.9152 0011981 105.4096 198.1843 14.74332248  1303
ONEWEB-0650             
1 55813U 23029T   23099.91667824 -.00736769  00000+0 -12112+0 0  9999
2 55813  86.6411 185.7950 0013261 107.7797 168.5273 14.73518535  5319
ONEWEB-0652             
1 55814U 23029U   23099.29298209  .00004892  00000+0  47740-3 0  9990
2 55814  86.5100 185.8215 0014518 110.9425 249.3358 14.92144929  4559
ONEWEB-0653             
1 55815U 23029V   23099.29363302  .00004951  00000+0  48358-3 0  9990
2 55815  86.5111 185.8305 0014300 110.3195 249.9572 14.92112028  4558
ONEWEB-0654             
1 55816U 23029W   23099.55169998  .00004295  00000+0  41363-3 0  9995
2 55816  86.5114 185.7029 0016113 115.3338 244.9561 14.92615655  4593
ONEWEB-0656             
1 55817U 23029X   23099.81384947  .00004747  00000+0  45398-3 0  9992
2 55817  86.5098 185.5768 0016406 118.3718 241.9167 14.92916559  5310
ONEWEB-0657             
1 55818U 23029Y   23099.58334491 -.00598758  00000+0 -10599+0 0  9999
2 55818  86.6570 185.9765 0015459 111.2673  57.9664 14.69739050  1302
ONEWEB-0658             
1 55819U 23029Z   23099.91667824 -.00738225  00000+0 -12214+0 0  9997
2 55819  86.6457 185.7856 0014515 109.2663 182.0511 14.73231291  5319
ONEWEB-0660             
1 55820U 23029AA  23099.76151222  .00004075  00000+0  39698-3 0  9998
2 55820  86.5115 185.6220 0014748 110.2338 250.0478 14.92165833  5322
ONEWEB-0661             
1 55821U 23029AB  23099.28206113  .00004750  00000+0  45693-3 0  9998
2 55821  86.5093 185.8161 0016017 116.7472 243.5398 14.92687295  4558
ONEWEB-0662             
1 55822U 23029AC  23099.29187796  .00004791  00000+0  46686-3 0  9993
2 55822  86.5114 185.8305 0014688 111.1787 249.1012 14.92197903  4550
ONEWEB-0663             
1 55823U 23029AD  23099.81538018  .00004758  00000+0  45595-3 0  9990
2 55823  86.5118 185.5830 0016248 117.4680 242.8203 14.92838204  5313
ONEWEB-0664             
1 55824U 23029AE  23099.28159648  .00004651  00000+0  44711-3 0  9991
2 55824  86.5088 185.8143 0016256 117.6321 242.6560 14.92707685  4550
ONEWEB-0665             
1 55825U 23029AF  23099.75388414  .00004725  00000+0  45591-3 0  9998
2 55825  86.5107 185.6130 0016030 114.2407 246.0498 14.92569383  5308
ONEWEB-0666             
1 55826U 23029AG  23099.28008066  .00009397  00000+0  90385-3 0  9990
2 55826  86.5120 185.8231 0016357 118.6740 241.6136 14.92789898  4559
ONEWEB-0667             
1 55827U 23029AH  23099.81300762  .00004727  00000+0  45165-3 0  9996
2 55827  86.5105 185.5778 0016643 119.2149 241.0746 14.92953083  5319
ONEWEB-0669             
1 55828U 23029AJ  23099.81467832  .00004843  00000+0  46373-3 0  9990
2 55828  86.5097 185.5768 0016277 117.7834 242.5047 14.92874350  5315
ONEWEB-0670             
1 55829U 23029AK  23099.95300551  .00004568  00000+0  43960-3 0  9993
2 55829  86.5116 185.5247 0015813 113.8326 246.4562 14.92663872  5330
ONEWEB-0671             
1 55830U 23029AL  23099.91667824 -.00775318  00000+0 -12509+0 0  9991
2 55830  86.6306 185.7733 0014337 108.1443 205.7604 14.74458424  5311
ONEWEB-0672             
1 55831U 23029AM  23099.81559372  .00004672  00000+0  44784-3 0  9999
2 55831  86.5089 185.5751 0016246 117.1995 243.0891 14.92827948  5314
ONEWEB-0673             
1 55832U 23029AN  23099.91667824 -.00702575  00000+0 -11704+0 0  9994
2 55832  86.6547 185.8170 0012414 109.0450  92.6745 14.72824743  5338
ONEWEB-0674             
1 55833U 23029AP  23099.28176953  .00001579  00000+0  14995-3 0  9996
2 55833  86.5125 185.8245 0016137 117.4983 242.7888 14.92703510  4552
ONEWEB-0675             
1 55834U 23029AQ  23099.91667824 -.00746259  00000+0 -12114+0 0  9999
2 55834  86.6379 185.7829 0012980 107.5981 180.8512 14.74102199  5331
ONEWEB-0720             
1 55835U 23029AR  23099.70963188  .00001240  00000+0  22591-3 0  9995
2 55835  86.6821 186.2497 0010440 115.6221 244.6073 14.65234218  5257
2023-030A               
1 55836U 23030A   23099.88717520 -.00019335  00000+0 -12974-1 0  9992
2 55836  98.9972 107.8414 0000922  75.6224 284.5075 14.00747540  4341
